
# Worst residual: 22.22 km
# MJD 59110.000000 (2020 Sep 18  0:00)
1964-040A = NORAD 00836 = Vela 2A
1 00836U 64040A   20262.49919926  .00000000  00000-0  00000-0 0  7226
2 00836 028.5958 249.3733 8680260 240.9565 033.9382 00.23941047    06

# Worst residual: 2.18 km
# MJD 59111.000000 (2020 Sep 19  0:00)
1964-040A = NORAD 00836 = Vela 2A
1 00836U 64040A   20263.49919926  .00000000  00000-0  00000-0 0  7227
2 00836 028.5426 249.1876 8678341 241.1398 120.1098 00.23926351    00

# Worst residual: 4.73 km
# MJD 59112.000000 (2020 Sep 20  0:00)
1964-040A = NORAD 00836 = Vela 2A
1 00836U 64040A   20264.49919926  .00000000  00000-0  00000-0 0  7228
2 00836 028.4989 249.0244 8676162 241.2802 206.2525 00.23922355    02

# Worst residual: 13.60 km
# MJD 59113.000000 (2020 Sep 21  0:00)
1964-040A = NORAD 00836 = Vela 2A
1 00836U 64040A   20265.49919926  .00000000  00000-0  00000-0 0  7229
2 00836 028.4489 248.8561 8671434 241.4265 292.2620 00.23932491    01

# Worst residual: 25.04 km
# MJD 59114.000000 (2020 Sep 22  0:00)
1964-040A = NORAD 00836 = Vela 2A
1 00836U 64040A   20266.49919926  .00000000  00000-0  00000-0 0  7220
2 00836 028.3976 248.6301 8665344 241.5776 018.4349 00.23980500    02

# Worst residual: 3.73 km
# MJD 59115.000000 (2020 Sep 23  0:00)
1964-040A = NORAD 00836 = Vela 2A
1 00836U 64040A   20267.49919926  .00000000  00000-0  00000-0 0  7221
2 00836 028.3028 248.3713 8672759 241.7649 104.5240 00.23931277    07

# Worst residual: 5.94 km
# MJD 59116.000000 (2020 Sep 24  0:00)
1964-040A = NORAD 00836 = Vela 2A
1 00836U 64040A   20268.49919926  .00000000  00000-0  00000-0 0  7222
2 00836 028.2620 248.2133 8672306 241.8857 190.7867 00.23932931    09

# Worst residual: 5.47 km
# MJD 59117.000000 (2020 Sep 25  0:00)
1964-040A = NORAD 00836 = Vela 2A
1 00836U 64040A   20269.49919926  .00000000  00000-0  00000-0 0  7223
2 00836 028.2355 248.1541 8671678 241.9054 277.1054 00.23920572    03

# Worst residual: 13.31 km
# MJD 59118.000000 (2020 Sep 26  0:00)
1964-040A = NORAD 00836 = Vela 2A
1 00836U 64040A   20270.49919926  .00000000  00000-0  00000-0 0  7225
2 00836 028.1914 247.8606 8673792 242.1611 003.2790 00.23895437    08

# Worst residual: 8.56 km
# MJD 59119.000000 (2020 Sep 27  0:00)
1964-040A = NORAD 00836 = Vela 2A
1 00836U 64040A   20271.49919926  .00000000  00000-0  00000-0 0  7226
2 00836 028.0993 247.6072 8670651 242.4010 089.4174 00.23907534    00

# Worst residual: 4.97 km
# MJD 59120.000000 (2020 Sep 28  0:00)
1964-040A = NORAD 00836 = Vela 2A
1 00836U 64040A   20272.49919926  .00000000  00000-0  00000-0 0  7227
2 00836 028.0554 247.4285 8669574 242.5270 175.7258 00.23920972    01

# Worst residual: 4.65 km
# MJD 59121.000000 (2020 Sep 29  0:00)
1964-040A = NORAD 00836 = Vela 2A
1 00836U 64040A   20273.49919926  .00000000  00000-0  00000-0 0  7228
2 00836 027.9921 247.1589 8669638 242.7489 261.9327 00.23920322    00

# Worst residual: 17.29 km
# MJD 59122.000000 (2020 Sep 30  0:00)
1964-040A = NORAD 00836 = Vela 2A
1 00836U 64040A   20274.49919926  .00000000  00000-0  00000-0 0  7229
2 00836 027.9348 246.7243 8664994 243.0936 348.0195 00.23935366    00

# Worst residual: 8.48 km
# MJD 59123.000000 (2020 Oct  1  0:00)
1964-040A = NORAD 00836 = Vela 2A
1 00836U 64040A   20275.49919926  .00000000  00000-0  00000-0 0  7220
2 00836 027.8880 246.5217 8664765 243.2955 074.1161 00.23894358    03

# Worst residual: 9.86 km
# MJD 59124.000000 (2020 Oct  2  0:00)
1964-040A = NORAD 00836 = Vela 2A
1 00836U 64040A   20276.49919926  .00000000  00000-0  00000-0 0  7221
2 00836 027.8893 246.4636 8669327 243.2868 160.4251 00.23927624    05

# Worst residual: 3.09 km
# MJD 59125.000000 (2020 Oct  3  0:00)
1964-040A = NORAD 00836 = Vela 2A
1 00836U 64040A   20277.49919926  .00000000  00000-0  00000-0 0  7222
2 00836 027.8640 246.3775 8674070 243.3521 246.6801 00.23937153    02

# Worst residual: 30.59 km
# MJD 59126.000000 (2020 Oct  4  0:00)
1964-040A = NORAD 00836 = Vela 2A
1 00836U 64040A   20278.49919926  .00000000  00000-0  00000-0 0  7223
2 00836 027.8125 246.1672 8669000 243.5263 332.7669 00.23977075    02

# Worst residual: 17.21 km
# MJD 59127.000000 (2020 Oct  5  0:00)
1964-040A = NORAD 00836 = Vela 2A
1 00836U 64040A   20279.49919926  .00000000  00000-0  00000-0 0  7224
2 00836 027.7615 245.9381 8672083 243.6854 059.0037 00.23936427    05

# Worst residual: 2.74 km
# MJD 59128.000000 (2020 Oct  6  0:00)
1964-040A = NORAD 00836 = Vela 2A
1 00836U 64040A   20280.49919926  .00000000  00000-0  00000-0 0  7226
2 00836 027.7175 245.7490 8674487 243.8563 145.0423 00.23918015    02

# Worst residual: 2.54 km
# MJD 59129.000000 (2020 Oct  7  0:00)
1964-040A = NORAD 00836 = Vela 2A
1 00836U 64040A   20281.49919926  .00000000  00000-0  00000-0 0  7227
2 00836 027.6844 245.6147 8675193 243.9712 231.1598 00.23919719    06

# Worst residual: 5.41 km
# MJD 59130.000000 (2020 Oct  8  0:00)
1964-040A = NORAD 00836 = Vela 2A
1 00836U 64040A   20282.49919926  .00000000  00000-0  00000-0 0  7228
2 00836 027.6412 245.4558 8674767 244.1108 317.2844 00.23926567    08

# Worst residual: 12.71 km
# MJD 59131.000000 (2020 Oct  9  0:00)
1964-040A = NORAD 00836 = Vela 2A
1 00836U 64040A   20283.49919926  .00000000  00000-0  00000-0 0  7229
2 00836 027.5821 245.1769 8674518 244.3565 043.4717 00.23936917    02

# Worst residual: 6.05 km
# MJD 59132.000000 (2020 Oct 10  0:00)
1964-040A = NORAD 00836 = Vela 2A
1 00836U 64040A   20284.49919926  .00000000  00000-0  00000-0 0  7220
2 00836 027.5530 245.0233 8675617 244.4956 129.5303 00.23914889    01

# Worst residual: 6.85 km
# MJD 59133.000000 (2020 Oct 11  0:00)
1964-040A = NORAD 00836 = Vela 2A
1 00836U 64040A   20285.49919926  .00000000  00000-0  00000-0 0  7221
2 00836 027.5631 245.0603 8675091 244.4647 215.5943 00.23913318    09

# Worst residual: 7.51 km
# MJD 59134.000000 (2020 Oct 12  0:00)
1964-040A = NORAD 00836 = Vela 2A
1 00836U 64040A   20286.49919926  .00000000  00000-0  00000-0 0  7222
2 00836 027.5332 244.9948 8675550 244.5409 301.6346 00.23932110    09

# Worst residual: 21.39 km
# MJD 59135.000000 (2020 Oct 13  0:00)
1964-040A = NORAD 00836 = Vela 2A
1 00836U 64040A   20287.49919926  .00000000  00000-0  00000-0 0  7223
2 00836 027.4945 244.6805 8674822 244.8098 027.7958 00.23916355    03

# Worst residual: 3.53 km
# MJD 59136.000000 (2020 Oct 14  0:00)
1964-040A = NORAD 00836 = Vela 2A
1 00836U 64040A   20288.49919926  .00000000  00000-0  00000-0 0  7224
2 00836 027.4389 244.4687 8671871 245.0226 113.9301 00.23909402    03

# Worst residual: 5.91 km
# MJD 59137.000000 (2020 Oct 15  0:00)
1964-040A = NORAD 00836 = Vela 2A
1 00836U 64040A   20289.49919926  .00000000  00000-0  00000-0 0  7225
2 00836 027.4160 244.3515 8673723 245.1220 200.0054 00.23913303    00

# Worst residual: 20.56 km
# MJD 59138.000000 (2020 Oct 16  0:00)
1964-040A = NORAD 00836 = Vela 2A
1 00836U 64040A   20290.49919926  .00000000  00000-0  00000-0 0  7227
2 00836 027.3652 244.1161 8673180 245.3726 285.8873 00.23945386    06
